      2.10          N: GNSS NAV DATA                        RINEX VERSION / TYPE
fic2rin                                 01/08/2023 00:17:32 PGM / RUN BY / DATE
                                                            END OF HEADER
21 23  1  7 20  0  0.0  .153271947056D-03  .341060513165D-12  .000000000000D+00
     .125000000000D+03  .315312500000D+02  .481377194149D-08  .173577430334D+00
     .138580799103D-05  .247656089487D-01  .125728547573D-05  .515366028786D+04
     .590400000000D+06  .633299350739D-07 -.148835535442D+01 -.352039933205D-06
     .961056619569D+00  .360093750000D+03 -.842371623565D+00 -.882643908519D-08
    -.182150444440D-10  .100000000000D+01  .224300000000D+04  .000000000000D+00
     .340000000000D+01  .000000000000D+00 -.102445483208D-07  .125000000000D+03
     .583200000000D+06  .400000000000D+01
18 23  1  7 20  0  0.0 -.899317674339D-04 -.151203494170D-10  .000000000000D+00
     .106000000000D+03  .213750000000D+02  .439768318116D-08 -.189954798085D+01
     .101514160633D-05  .295873300638D-02 -.931322574615D-08  .515370165825D+04
     .590400000000D+06 -.614672899246D-07 -.138547707123D+01 -.186264514923D-07
     .972859132494D+00  .387562500000D+03 -.310206288377D+01 -.829105964163D-08
     .682171272315D-10  .100000000000D+01  .224300000000D+04  .000000000000D+00
     .240000000000D+01  .000000000000D+00 -.838190317154D-08  .874000000000D+03
     .583200000000D+06  .400000000000D+01
20 23  1  7 20  0  0.0  .458515249193D-03 -.238742359215D-11  .000000000000D+00
     .930000000000D+02 -.132218750000D+03  .472555398115D-08 -.107270285838D+01
    -.684522092342D-05  .459645502269D-02  .429525971413D-05  .515372676277D+04
     .590400000000D+06  .670552253723D-07 -.521069432176D+00 -.800937414169D-07
     .946665911978D+00  .288500000000D+03 -.295913493162D+01 -.828248785601D-08
    -.158578033983D-09  .100000000000D+01  .224300000000D+04  .000000000000D+00
     .485000000000D+01  .000000000000D+00 -.838190317154D-08  .930000000000D+02
     .583200000000D+06  .400000000000D+01
25 23  1  7 20  0  0.0  .409250613302D-03  .341060513165D-11  .000000000000D+00
     .970000000000D+02  .881250000000D+01  .454161774804D-08  .278936638552D+01
     .316649675369D-06  .110775908688D-01  .934489071369D-05  .515356462097D+04
     .590400000000D+06  .745058059692D-08  .277440383642D+01 -.188127160072D-06
     .954535837780D+00  .192593750000D+03  .101439545538D+01 -.765781897890D-08
    -.622883088438D-09  .100000000000D+01  .224300000000D+04  .000000000000D+00
     .340000000000D+01  .000000000000D+00  .558793544769D-08  .970000000000D+02
     .583200000000D+06  .400000000000D+01
24 23  1  7 19 59 44.0 -.198245979846D-04 -.168256519828D-10  .000000000000D+00
     .220000000000D+02  .690625000000D+01  .552701593668D-08 -.174146767622D+01
     .324100255966D-06  .136462410446D-01  .461377203465D-05  .515365305138D+04
     .590384000000D+06  .240281224251D-06  .165231861441D+01 -.109896063805D-06
     .933498900250D+00  .272125000000D+03  .877261080142D+00 -.823855745470D-08
     .321084803042D-09  .100000000000D+01  .224300000000D+04  .000000000000D+00
     .240000000000D+01  .000000000000D+00  .279396772385D-08  .220000000000D+02
     .583740000000D+06  .400000000000D+01
8  23  1  7 19 59 44.0 -.102457124740D-03 -.181898940355D-11  .000000000000D+00
     .330000000000D+02  .112312500000D+03  .435839583039D-08  .230611813725D+00
     .586919486523D-05  .811092532240D-02  .796280801296D-05  .515364328384D+04
     .590384000000D+06  .119209289551D-06 -.247667408877D+01  .502914190292D-07
     .960910510625D+00  .222125000000D+03  .187449720719D+00 -.801033366255D-08
    -.396445084958D-10  .100000000000D+01  .224300000000D+04  .000000000000D+00
     .240000000000D+01  .000000000000D+00  .512227416039D-08  .330000000000D+02
     .583800000000D+06  .400000000000D+01
11 23  1  7 20 29 36.0 -.735647045076D-04 -.852651282912D-11  .000000000000D+00
     .130000000000D+03  .778125000000D+01  .467626621383D-08 -.263598215764D+00
     .385567545891D-06  .796202220954D-03 -.167638063431D-07  .515368728828D+04
     .592176000000D+06  .484287738800D-07 -.135230515362D+01 -.260770320892D-07
     .964332673927D+00  .383593750000D+03 -.270609027564D+01 -.844106588999D-08
    -.210723063176D-10  .100000000000D+01  .224300000000D+04  .000000000000D+00
     .240000000000D+01  .000000000000D+00 -.884756445885D-08  .386000000000D+03
     .585000000000D+06  .400000000000D+01
25 23  1  7 19 59 44.0  .409250613302D-03  .341060513165D-11  .000000000000D+00
     .500000000000D+01  .881250000000D+01  .454161774804D-08  .278703173211D+01
     .316649675369D-06  .110775908688D-01  .934489071369D-05  .515356462860D+04
     .590384000000D+06  .745058059692D-08  .277440396662D+01 -.188127160072D-06
     .954535848021D+00  .192593750000D+03  .101439613271D+01 -.765781897890D-08
    -.622883088438D-09  .100000000000D+01  .224300000000D+04  .000000000000D+00
     .240000000000D+01  .000000000000D+00  .558793544769D-08  .500000000000D+01
     .587370000000D+06  .400000000000D+01
21 23  1  7 19 59 44.0  .153273344040D-03  .341060513165D-12  .000000000000D+00
     .200000000000D+01  .315312500000D+02  .481377194149D-08  .171243609327D+00
     .138580799103D-05  .247656076681D-01  .125728547573D-05  .515366028976D+04
     .590384000000D+06  .633299350739D-07 -.148835518911D+01 -.352039933205D-06
     .961056612254D+00  .360093750000D+03 -.842371663064D+00 -.882643908519D-08
    -.182150444440D-10  .100000000000D+01  .224300000000D+04  .000000000000D+00
     .240000000000D+01  .000000000000D+00 -.102445483208D-07  .200000000000D+01
     .587700000000D+06  .400000000000D+01
20 23  1  7 19 59 44.0  .458516180515D-03 -.238742359215D-11  .000000000000D+00
     .400000000000D+01 -.132218750000D+03  .472555398115D-08 -.107503672474D+01
    -.684522092342D-05  .459645665251D-02  .429525971413D-05  .515372677422D+04
     .590384000000D+06  .670552253723D-07 -.521069294662D+00 -.800937414169D-07
     .946665917830D+00  .288500000000D+03 -.295913479118D+01 -.828248785601D-08
    -.158578033983D-09  .100000000000D+01  .224300000000D+04  .000000000000D+00
     .240000000000D+01  .000000000000D+00 -.838190317154D-08  .400000000000D+01
     .587700000000D+06  .400000000000D+01
8  23  1  7 21 59 44.0 -.102470163256D-03 -.181898940355D-11  .000000000000D+00
     .460000000000D+02  .133000000000D+03  .427410660512D-08  .128047859550D+01
     .717118382454D-05  .811309530400D-02  .871159136295D-05  .515364979172D+04
     .597584000000D+06  .931322574615D-08 -.247673099628D+01  .106170773506D-06
     .960910162451D+00  .208093750000D+03  .187779304459D+00 -.793747348477D-08
    -.113576159474D-09  .100000000000D+01  .224300000000D+04  .000000000000D+00
     .240000000000D+01  .000000000000D+00  .512227416039D-08  .460000000000D+02
     .590400000000D+06  .400000000000D+01
21 23  1  7 21 59 44.0  .153275206685D-03  .341060513165D-12  .000000000000D+00
     .600000000000D+01  .404375000000D+02  .469340978507D-08  .122134343102D+01
     .160560011864D-05  .247668422526D-01 -.497326254845D-06  .515366497421D+04
     .597584000000D+06  .538304448128D-06 -.148841746846D+01 -.987201929092D-07
     .961058281444D+00  .379000000000D+03 -.842280754409D+00 -.838320633705D-08
    -.685742849656D-10  .100000000000D+01  .224300000000D+04  .000000000000D+00
     .240000000000D+01  .000000000000D+00 -.102445483208D-07  .600000000000D+01
     .590400000000D+06  .400000000000D+01
20 23  1  7 21 59 44.0  .458498485386D-03 -.238742359215D-11  .000000000000D+00
     .800000000000D+01 -.118312500000D+03  .480091426306D-08 -.251762379028D-01
    -.611320137978D-05  .459532625973D-02  .455603003502D-05  .515372360611D+04
     .597584000000D+06  .782310962677D-07 -.521129016830D+00  .260770320892D-07
     .946664277898D+00  .285375000000D+03 -.295884346421D+01 -.836356266167D-08
    -.197865384745D-09  .100000000000D+01  .224300000000D+04  .000000000000D+00
     .240000000000D+01  .000000000000D+00 -.838190317154D-08  .800000000000D+01
     .590400000000D+06  .400000000000D+01
25 23  1  7 21 59 44.0  .409275293350D-03  .341060513165D-11  .000000000000D+00
     .600000000000D+01  .553125000000D+01  .465233664564D-08 -.244595006320D+01
     .214204192162D-06  .110787809826D-01  .895559787750D-05  .515356229591D+04
     .597584000000D+06  .210478901863D-06  .277434756527D+01 -.596046447754D-07
     .954531721129D+00  .202187500000D+03  .101444165726D+01 -.773425073402D-08
    -.447161483213D-09  .100000000000D+01  .224300000000D+04  .000000000000D+00
     .240000000000D+01  .000000000000D+00  .558793544769D-08  .600000000000D+01
     .590400000000D+06  .400000000000D+01
